HIMAWARI-8              
1 40267U 14060A   24083.85374213 -.00000278  00000+0  00000+0 0  9996
2 40267   0.0226 189.6226 0000767 184.0645 256.1336  1.00273437 34687
